{
  "norad_id": 62774,
  "name": "STARLINK-33574",
  "history": [
    {
      "epoch": "2026-03-28T18:16:13.956960Z",
      "apogee_km": 475.9804198667498,
      "perigee_km": 474.3592016076027,
      "latitude_deg": 1.6917088672592243e-05,
      "longitude_deg": 133.45447816930294,
      "height_km": 476.1874372177747,
      "semi_major_axis_km": 6853.306810737176,
      "eccentricity": 0.00011828,
      "inclination_deg": 53.1582,
      "raan_deg": 233.6897,
      "arg_perigee_deg": 98.4851,
      "mean_anomaly_deg": 261.6284,
      "mean_motion_rev_day": 15.30215158
    },
    {
      "epoch": "2026-03-29T22:29:11.797440Z",
      "apogee_km": 476.1414025840186,
      "perigee_km": 474.31182863319646,
      "latitude_deg": -3.072240018673372e-06,
      "longitude_deg": 63.591268970873514,
      "height_km": 475.8408825643711,
      "semi_major_axis_km": 6853.363615608608,
      "eccentricity": 0.00013348,
      "inclination_deg": 53.1579,
      "raan_deg": 228.2263,
      "arg_perigee_deg": 71.9405,
      "mean_anomaly_deg": 288.1741,
      "mean_motion_rev_day": 15.30196133
    },
    {
      "epoch": "2026-03-30T12:35:40.490880Z",
      "apogee_km": 476.10272721639467,
      "perigee_km": 474.3518297105329,
      "latitude_deg": 2.7824957544103148e-05,
      "longitude_deg": -151.3390571259768,
      "height_km": 476.06006956984396,
      "semi_major_axis_km": 6853.364278463464,
      "eccentricity": 0.00012774,
      "inclination_deg": 53.1584,
      "raan_deg": 225.4949,
      "arg_perigee_deg": 85.7353,
      "mean_anomaly_deg": 274.3794,
      "mean_motion_rev_day": 15.30195911
    },
    {
      "epoch": "2026-03-31T18:22:41.537856Z",
      "apogee_km": 475.94930736680726,
      "perigee_km": 474.3250813827408,
      "latitude_deg": 4.795580625117958e-06,
      "longitude_deg": 114.92039495842377,
      "height_km": 475.6705716461617,
      "semi_major_axis_km": 6853.274194374774,
      "eccentricity": 0.0001185,
      "inclination_deg": 53.1601,
      "raan_deg": 219.7319,
      "arg_perigee_deg": 63.291,
      "mean_anomaly_deg": 296.8212,
      "mean_motion_rev_day": 15.30226082
    },
    {
      "epoch": "2026-04-01T14:45:23.034816Z",
      "apogee_km": 476.5344556520495,
      "perigee_km": 473.9274344857449,
      "latitude_deg": -2.3383990582189395e-06,
      "longitude_deg": 164.4672840571479,
      "height_km": 476.22988574578096,
      "semi_major_axis_km": 6853.367945068897,
      "eccentricity": 0.0001902,
      "inclination_deg": 53.1597,
      "raan_deg": 215.7886,
      "arg_perigee_deg": 94.4786,
      "mean_anomaly_deg": 265.6432,
      "mean_motion_rev_day": 15.30194683
    },
    {
      "epoch": "2026-04-02T14:16:09.621984Z",
      "apogee_km": 477.77179167981285,
      "perigee_km": 472.2789820267499,
      "latitude_deg": 1.964891895753505e-07,
      "longitude_deg": 166.2555314664775,
      "height_km": 476.23319535727836,
      "semi_major_axis_km": 6853.162386853281,
      "eccentricity": 0.00040075,
      "inclination_deg": 53.1561,
      "raan_deg": 211.2366,
      "arg_perigee_deg": 96.5725,
      "mean_anomaly_deg": 263.5732,
      "mean_motion_rev_day": 15.3026353
    },
    {
      "epoch": "2026-04-03T16:55:05.857824Z",
      "apogee_km": 476.0651267172516,
      "perigee_km": 474.4641720919508,
      "latitude_deg": 1.3175958084277442e-06,
      "longitude_deg": 120.27038286357656,
      "height_km": 475.9352686328283,
      "semi_major_axis_km": 6853.401649404601,
      "eccentricity": 0.0001168,
      "inclination_deg": 53.1618,
      "raan_deg": 206.0802,
      "arg_perigee_deg": 73.4624,
      "mean_anomaly_deg": 286.6505,
      "mean_motion_rev_day": 15.30183395
    },
    {
      "epoch": "2026-04-04T14:51:49.607424Z",
      "apogee_km": 475.8333488355902,
      "perigee_km": 474.6189328870305,
      "latitude_deg": 1.41278959667272e-05,
      "longitude_deg": 145.93933271160742,
      "height_km": 475.92969744347636,
      "semi_major_axis_km": 6853.36314086131,
      "eccentricity": 8.86e-05,
      "inclination_deg": 53.1616,
      "raan_deg": 201.8327,
      "arg_perigee_deg": 71.2412,
      "mean_anomaly_deg": 288.8685,
      "mean_motion_rev_day": 15.30196292
    },
    {
      "epoch": "2026-04-05T14:22:37.754112Z",
      "apogee_km": 475.63689464659365,
      "perigee_km": 474.6102762108967,
      "latitude_deg": -3.236915371364108e-05,
      "longitude_deg": 147.72572547627914,
      "height_km": 475.8320751024128,
      "semi_major_axis_km": 6853.260585428745,
      "eccentricity": 7.49e-05,
      "inclination_deg": 53.1615,
      "raan_deg": 197.2854,
      "arg_perigee_deg": 68.2114,
      "mean_anomaly_deg": 291.8966,
      "mean_motion_rev_day": 15.3023064
    },
    {
      "epoch": "2026-04-06T06:03:10.126656Z",
      "apogee_km": 476.54479567797534,
      "perigee_km": 473.8828171577461,
      "latitude_deg": -1.9018626417457588e-05,
      "longitude_deg": -91.08742796202243,
      "height_km": 475.93234655567613,
      "semi_major_axis_km": 6853.35080641786,
      "eccentricity": 0.00019421,
      "inclination_deg": 53.1627,
      "raan_deg": 194.2509,
      "arg_perigee_deg": 82.2752,
      "mean_anomaly_deg": 277.8469,
      "mean_motion_rev_day": 15.30200423
    },
    {
      "epoch": "2026-04-07T14:58:16.959360Z",
      "apogee_km": 475.6682752633178,
      "perigee_km": 474.78693257525356,
      "latitude_deg": 4.803961669361988e-05,
      "longitude_deg": 127.41093130380776,
      "height_km": 475.9841974106412,
      "semi_major_axis_km": 6853.364603919285,
      "eccentricity": 6.43e-05,
      "inclination_deg": 53.1584,
      "raan_deg": 187.8796,
      "arg_perigee_deg": 71.177,
      "mean_anomaly_deg": 288.9301,
      "mean_motion_rev_day": 15.30195802
    },
    {
      "epoch": "2026-04-08T11:20:58.458048Z",
      "apogee_km": 475.5499157145405,
      "perigee_km": 474.85786535141415,
      "latitude_deg": 7.296214748165786e-05,
      "longitude_deg": 176.9551334198001,
      "height_km": 476.026294854057,
      "semi_major_axis_km": 6853.340890532977,
      "eccentricity": 5.049e-05,
      "inclination_deg": 53.157,
      "raan_deg": 183.9336,
      "arg_perigee_deg": 77.2502,
      "mean_anomaly_deg": 282.8556,
      "mean_motion_rev_day": 15.30203744
    },
    {
      "epoch": "2026-04-09T12:25:49.829376Z",
      "apogee_km": 475.91773110502163,
      "perigee_km": 474.5201947570604,
      "latitude_deg": -4.411821555158174e-05,
      "longitude_deg": 154.85745838661597,
      "height_km": 475.99017172880576,
      "semi_major_axis_km": 6853.35596293104,
      "eccentricity": 0.00010196,
      "inclination_deg": 53.1576,
      "raan_deg": 179.0801,
      "arg_perigee_deg": 79.5302,
      "mean_anomaly_deg": 280.5813,
      "mean_motion_rev_day": 15.30198696
    },
    {
      "epoch": "2026-04-10T05:40:24.972960Z",
      "apogee_km": 475.9186545650073,
      "perigee_km": 474.4690380243992,
      "latitude_deg": -8.04926192889245e-06,
      "longitude_deg": -107.83299707115627,
      "height_km": 476.01099470794213,
      "semi_major_axis_km": 6853.3308462947025,
      "eccentricity": 0.00010576,
      "inclination_deg": 53.1572,
      "raan_deg": 175.7442,
      "arg_perigee_deg": 83.5893,
      "mean_anomaly_deg": 276.5228,
      "mean_motion_rev_day": 15.30207108
    },
    {
      "epoch": "2026-04-11T11:27:25.860960Z",
      "apogee_km": 476.01243511577013,
      "perigee_km": 474.4416440778941,
      "latitude_deg": -2.0888910474044245e-05,
      "longitude_deg": 158.42622263014783,
      "height_km": 475.9985097819728,
      "semi_major_axis_km": 6853.364039596831,
      "eccentricity": 0.0001146,
      "inclination_deg": 53.1575,
      "raan_deg": 169.9803,
      "arg_perigee_deg": 80.7291,
      "mean_anomaly_deg": 279.3839,
      "mean_motion_rev_day": 15.30195991
    },
    {
      "epoch": "2026-04-12T10:58:13.630080Z",
      "apogee_km": 476.01518543148995,
      "perigee_km": 474.54361986151434,
      "latitude_deg": 8.833888430473081e-06,
      "longitude_deg": 160.21065007727734,
      "height_km": 475.93709056870654,
      "semi_major_axis_km": 6853.416402646502,
      "eccentricity": 0.00010736,
      "inclination_deg": 53.1581,
      "raan_deg": 165.4294,
      "arg_perigee_deg": 70.9196,
      "mean_anomaly_deg": 289.1921,
      "mean_motion_rev_day": 15.30178454
    },
    {
      "epoch": "2026-04-14T20:58:11.692416Z",
      "apogee_km": 475.97922734860185,
      "perigee_km": 474.4290015885081,
      "latitude_deg": 1.0594432211055386e-05,
      "longitude_deg": -3.3894266360999827,
      "height_km": 475.9022602661694,
      "semi_major_axis_km": 6853.341114468554,
      "eccentricity": 0.0001131,
      "inclination_deg": 53.159,
      "raan_deg": 154.2032,
      "arg_perigee_deg": 75.0419,
      "mean_anomaly_deg": 285.0707,
      "mean_motion_rev_day": 15.30203669
    },
    {
      "epoch": "2026-04-15T09:30:37.401408Z",
      "apogee_km": 476.1620107678018,
      "perigee_km": 474.25609523046205,
      "latitude_deg": 2.0844720109217684e-05,
      "longitude_deg": 165.560042187478,
      "height_km": 476.04709666173653,
      "semi_major_axis_km": 6853.346052999132,
      "eccentricity": 0.00013905,
      "inclination_deg": 53.1609,
      "raan_deg": 151.7748,
      "arg_perigee_deg": 86.3923,
      "mean_anomaly_deg": 273.7237,
      "mean_motion_rev_day": 15.30202015
    },
    {
      "epoch": "2026-04-16T12:09:31.699296Z",
      "apogee_km": 476.0598667618897,
      "perigee_km": 474.3670891938291,
      "latitude_deg": -1.306820590912529e-05,
      "longitude_deg": 119.58306632785653,
      "height_km": 475.8486077543897,
      "semi_major_axis_km": 6853.35047797786,
      "eccentricity": 0.0001235,
      "inclination_deg": 53.16,
      "raan_deg": 146.6185,
      "arg_perigee_deg": 71.8907,
      "mean_anomaly_deg": 288.2228,
      "mean_motion_rev_day": 15.30200533
    }
  ]
}